[{"OBJECT_NAME":"NUSAT-35 (WILLIAMINA)","OBJECT_ID":"2023-001AR","EPOCH":"2026-03-09T22:28:40.425600","MEAN_MOTION":15.3245616,"ECCENTRICITY":0.00136635,"INCLINATION":97.1993,"RA_OF_ASC_NODE":124.278,"ARG_OF_PERICENTER":97.0313,"MEAN_ANOMALY":263.2484,"EPHEMERIS_TYPE":0,"CLASSIFICATION_TYPE":"U","NORAD_CAT_ID":55048,"ELEMENT_SET_NO":999,"REV_AT_EPOCH":17719,"BSTAR":0.00053479647,"MEAN_MOTION_DOT":0.0001675,"MEAN_MOTION_DDOT":0},{"OBJECT_NAME":"STARLINK-34777","OBJECT_ID":"2025-189S","EPOCH":"2026-03-09T16:16:19.859232","MEAN_MOTION":15.3019953,"ECCENTRICITY":9.224e-5,"INCLINATION":53.1575,"RA_OF_ASC_NODE":206.8908,"ARG_OF_PERICENTER":83.7399,"MEAN_ANOMALY":276.3707,"EPHEMERIS_TYPE":0,"CLASSIFICATION_TYPE":"U","NORAD_CAT_ID":65339,"ELEMENT_SET_NO":999,"REV_AT_EPOCH":3111,"BSTAR":0.00085592742,"MEAN_MOTION_DOT":0.00025076,"MEAN_MOTION_DDOT":0}]
